{
  "type": "FeatureCollection",
  "features": [
    {
      "type": "Feature",
      "properties": {
        "name": "Site A",
        "attribute1": "High",
        "attribute2": "Type 1"
      },
      "geometry": {
        "type": "Point",
        "coordinates": [2.35, 48.85]
      }
    },
    {
      "type": "Feature",
      "properties": {
        "name": "Site B",
        "attribute1": "Medium",
        "attribute2": "Type 2"
      },
      "geometry": {
        "type": "Point",
        "coordinates": [-118.25, 34.05]
      }
    }
  ]
}
